CS2                     
1 49262U 21088C   26068.73485932  .00018033  00000+0  56178-3 0  9999
2 49262  97.3928 134.2907 0011637  82.3491 277.9072 15.33255930245263
STARLINK-31251          
1 58836U 24017L   26068.67215167  .00000182  00000+0  18285-4 0  9999
2 58836  53.1599 204.3899 0000941  77.6945 282.4161 15.30189076120165
